start=new Date('2022-11-30T00:00:00.000Z').valueOf();
sats=[{"ELEMENT_SET_NO":"999","CENTER_NAME":"EARTH","PERIOD":"95.592","OBJECT_NAME":"STARLINK-2187","EPHEMERIS_TYPE":"0","MEAN_ANOMALY":"279.8552","SEMIMAJOR_AXIS":"6925.350","CLASSIFICATION_TYPE":"U","BSTAR":"0.00009303000000","OBJECT_TYPE":"PAYLOAD","TIME_SYSTEM":"UTC","FILE":"3673849","NORAD_CAT_ID":"48562","DECAY_DATE":null,"ECCENTRICITY":"0.00014730","LAUNCH_DATE":"2021-05-15","MEAN_MOTION_DDOT":"0.0000000000000","INCLINATION":"53.0555","RCS_SIZE":"LARGE","REF_FRAME":"TEME","OBJECT_ID":"2021-041K","MEAN_ELEMENT_THEORY":"SGP4","MEAN_MOTION_DOT":"0.00001104","EPOCH":"2022-11-29T18:42:16.460352","APOAPSIS":"548.235","COUNTRY_CODE":"US","RA_OF_ASC_NODE":"100.2640","ARG_OF_PERICENTER":"80.2603","MEAN_MOTION":"15.06399608","PERIAPSIS":"546.195","SITE":"AFETR","REV_AT_EPOCH":"8495","TLE_LINE1":"1 48562U 21041K   22333.77935718  .00001104  00000-0  93030-4 0  9998","GP_ID":"219111381","TLE_LINE2":"2 48562  53.0555 100.2640 0001473  80.2603 279.8552 15.06399608 84958"},{"REV_AT_EPOCH":"8494","GP_ID":"219110129","TLE_LINE2":"2 48563  53.0559 100.4727 0001574  63.5006 296.6145 15.06396640 84941","TLE_LINE1":"1 48563U 21041L   22333.73144361  .00001179  00000-0  98072-4 0  9994","ARG_OF_PERICENTER":"63.5006","MEAN_MOTION":"15.06396640","RA_OF_ASC_NODE":"100.4727","SITE":"AFETR","PERIAPSIS":"546.134","MEAN_ELEMENT_THEORY":"SGP4","MEAN_MOTION_DOT":"0.00001179","EPOCH":"2022-11-29T17:33:16.727904","OBJECT_ID":"2021-041L","COUNTRY_CODE":"US","APOAPSIS":"548.314","LAUNCH_DATE":"2021-05-15","MEAN_MOTION_DDOT":"0.0000000000000","INCLINATION":"53.0559","REF_FRAME":"TEME","RCS_SIZE":"LARGE","FILE":"3673849","NORAD_CAT_ID":"48563","TIME_SYSTEM":"UTC","ECCENTRICITY":"0.00015740","DECAY_DATE":null,"CLASSIFICATION_TYPE":"U","BSTAR":"0.00009807200000","OBJECT_TYPE":"PAYLOAD","EPHEMERIS_TYPE":"0","MEAN_ANOMALY":"296.6145","SEMIMAJOR_AXIS":"6925.359","CENTER_NAME":"EARTH","ELEMENT_SET_NO":"999","OBJECT_NAME":"STARLINK-2188","PERIOD":"95.592"},{"PERIAPSIS":"546.258","SITE":"AFETR","RA_OF_ASC_NODE":"101.4201","MEAN_MOTION":"15.06390181","ARG_OF_PERICENTER":"74.3511","TLE_LINE1":"1 48564U 21041M   22333.52503768  .00000340  00000-0  41729-4 0  9998","TLE_LINE2":"2 48564  53.0546 101.4201 0001423  74.3511 285.7634 15.06390181 84913","GP_ID":"219109880","REV_AT_EPOCH":"8491","RCS_SIZE":"LARGE","REF_FRAME":"TEME","MEAN_MOTION_DDOT":"0.0000000000000","INCLINATION":"53.0546","LAUNCH_DATE":"2021-05-15","APOAPSIS":"548.229","COUNTRY_CODE":"US","OBJECT_ID":"2021-041M","EPOCH":"2022-11-29T12:36:03.255552","MEAN_ELEMENT_THEORY":"SGP4","MEAN_MOTION_DOT":"0.00000340","OBJECT_TYPE":"PAYLOAD","BSTAR":"0.00004172900000","CLASSIFICATION_TYPE":"U","DECAY_DATE":null,"ECCENTRICITY":"0.00014230","TIME_SYSTEM":"UTC","FILE":"3673849","NORAD_CAT_ID":"48564","PERIOD":"95.593","OBJECT_NAME":"STARLINK-2190","ELEMENT_SET_NO":"999","CENTER_NAME":"EARTH","SEMIMAJOR_AXIS":"6925.379","EPHEMERIS_TYPE":"0","MEAN_ANOMALY":"285.7634"},{"REF_FRAME":"TEME","RCS_SIZE":"LARGE","LAUNCH_DATE":"2021-05-15","INCLINATION":"53.0559","MEAN_MOTION_DDOT":"0.0000000000000","COUNTRY_CODE":"US","APOAPSIS":"548.268","MEAN_ELEMENT_THEORY":"SGP4","MEAN_MOTION_DOT":"-0.00000505","EPOCH":"2022-11-29T18:51:31.785984","OBJECT_ID":"2021-041N","SITE":"AFETR","PERIAPSIS":"546.152","ARG_OF_PERICENTER":"66.4377","MEAN_MOTION":"15.06401210","RA_OF_ASC_NODE":"100.2360","GP_ID":"219111131","TLE_LINE2":"2 48565  53.0559 100.2360 0001528  66.4377 293.6772 15.06401210 84950","TLE_LINE1":"1 48565U 21041N   22333.78578456 -.00000505  00000-0 -14990-4 0  9998","REV_AT_EPOCH":"8495","OBJECT_NAME":"STARLINK-2191","PERIOD":"95.592","CENTER_NAME":"EARTH","ELEMENT_SET_NO":"999","SEMIMAJOR_AXIS":"6925.345","MEAN_ANOMALY":"293.6772","EPHEMERIS_TYPE":"0","BSTAR":"-0.00001499000000","OBJECT_TYPE":"PAYLOAD","CLASSIFICATION_TYPE":"U","ECCENTRICITY":"0.00015280","DECAY_DATE":null,"NORAD_CAT_ID":"48565","FILE":"3673849","TIME_SYSTEM":"UTC"},{"MEAN_MOTION":"15.06413159","ARG_OF_PERICENTER":"67.6249","RA_OF_ASC_NODE":"110.1151","SITE":"AFETR","PERIAPSIS":"546.078","REV_AT_EPOCH":"8481","GP_ID":"219110882","TLE_LINE2":"2 48566  53.0555 110.1151 0001581  67.6249 292.4907 15.06413159 84812","TLE_LINE1":"1 48566U 21041P   22333.80791905 -.00003612  00000-0 -22363-3 0  9992","LAUNCH_DATE":"2021-05-15","INCLINATION":"53.0555","MEAN_MOTION_DDOT":"0.0000000000000","REF_FRAME":"TEME","RCS_SIZE":"LARGE","MEAN_MOTION_DOT":"-0.00003612","MEAN_ELEMENT_THEORY":"SGP4","EPOCH":"2022-11-29T19:23:24.205920","OBJECT_ID":"2021-041P","COUNTRY_CODE":"US","APOAPSIS":"548.268","CLASSIFICATION_TYPE":"U","OBJECT_TYPE":"PAYLOAD","BSTAR":"-0.00022363000000","FILE":"3673849","NORAD_CAT_ID":"48566","TIME_SYSTEM":"UTC","ECCENTRICITY":"0.00015810","DECAY_DATE":null,"CENTER_NAME":"EARTH","ELEMENT_SET_NO":"999","OBJECT_NAME":"STARLINK-2214","PERIOD":"95.591","EPHEMERIS_TYPE":"0","MEAN_ANOMALY":"292.4907","SEMIMAJOR_AXIS":"6925.308"},{"PERIOD":"95.592","OBJECT_NAME":"STARLINK-2215","ELEMENT_SET_NO":"999","CENTER_NAME":"EARTH","SEMIMAJOR_AXIS":"6925.348","MEAN_ANOMALY":"278.8502","EPHEMERIS_TYPE":"0","BSTAR":"0.00001506800000","OBJECT_TYPE":"PAYLOAD","CLASSIFICATION_TYPE":"U","DECAY_DATE":null,"ECCENTRICITY":"0.00014650","TIME_SYSTEM":"UTC","NORAD_CAT_ID":"48567","FILE":"3673849","RCS_SIZE":"LARGE","REF_FRAME":"TEME","LAUNCH_DATE":"2021-05-15","MEAN_MOTION_DDOT":"0.0000000000000","INCLINATION":"53.0549","APOAPSIS":"548.227","COUNTRY_CODE":"US","OBJECT_ID":"2021-041Q","MEAN_MOTION_DOT":"-0.00000057","MEAN_ELEMENT_THEORY":"SGP4","EPOCH":"2022-11-29T18:09:06.446304","PERIAPSIS":"546.198","SITE":"AFETR","RA_OF_ASC_NODE":"110.3816","ARG_OF_PERICENTER":"81.2653","MEAN_MOTION":"15.06400285","TLE_LINE1":"1 48567U 21041Q   22333.75632461 -.00000057  00000-0  15068-4 0  9992","GP_ID":"219109630","TLE_LINE2":"2 48567  53.0549 110.3816 0001465  81.2653 278.8502 15.06400285 84802","REV_AT_EPOCH":"8480"},{"CLASSIFICATION_TYPE":"U","OBJECT_TYPE":"PAYLOAD","BSTAR":"0.00001808500000","FILE":"3673849","NORAD_CAT_ID":"48568","TIME_SYSTEM":"UTC","ECCENTRICITY":"0.00013550","DECAY_DATE":null,"CENTER_NAME":"EARTH","ELEMENT_SET_NO":"999","OBJECT_NAME":"STARLINK-2217","PERIOD":"95.592","EPHEMERIS_TYPE":"0","MEAN_ANOMALY":"284.9648","SEMIMAJOR_AXIS":"6925.335","ARG_OF_PERICENTER":"75.1491","MEAN_MOTION":"15.06404309","RA_OF_ASC_NODE":"100.3211","SITE":"AFETR","PERIAPSIS":"546.262","REV_AT_EPOCH":"8494","TLE_LINE2":"2 48568  53.0558 100.3211 0001355  75.1491 284.9648 15.06404309 84946","GP_ID":"219110380","TLE_LINE1":"1 48568U 21041R   22333.76829583 -.00000012  00000-0  18085-4 0  9990","MEAN_MOTION_DDOT":"0.0000000000000","INCLINATION":"53.0558","LAUNCH_DATE":"2021-05-15","REF_FRAME":"TEME","RCS_SIZE":"LARGE","EPOCH":"2022-11-29T18:26:20.759712","MEAN_MOTION_DOT":"-0.00000012","MEAN_ELEMENT_THEORY":"SGP4","OBJECT_ID":"2021-041R","COUNTRY_CODE":"US","APOAPSIS":"548.139"},{"CENTER_NAME":"EARTH","ELEMENT_SET_NO":"999","OBJECT_NAME":"STARLINK-2219","PERIOD":"95.592","EPHEMERIS_TYPE":"0","MEAN_ANOMALY":"276.2233","SEMIMAJOR_AXIS":"6925.335","CLASSIFICATION_TYPE":"U","BSTAR":"0.00007658100000","OBJECT_TYPE":"PAYLOAD","FILE":"3673849","NORAD_CAT_ID":"48569","TIME_SYSTEM":"UTC","ECCENTRICITY":"0.00013620","DECAY_DATE":null,"LAUNCH_DATE":"2021-05-15","MEAN_MOTION_DDOT":"0.0000000000000","INCLINATION":"53.0543","REF_FRAME":"TEME","RCS_SIZE":"LARGE","MEAN_ELEMENT_THEORY":"SGP4","MEAN_MOTION_DOT":"0.00000860","EPOCH":"2022-11-29T17:27:57.854880","OBJECT_ID":"2021-041S","COUNTRY_CODE":"US","APOAPSIS":"548.143","ARG_OF_PERICENTER":"83.8911","MEAN_MOTION":"15.06404492","RA_OF_ASC_NODE":"100.4912","SITE":"AFETR","PERIAPSIS":"546.257","REV_AT_EPOCH":"8494","GP_ID":"219110632","TLE_LINE2":"2 48569  53.0543 100.4912 0001362  83.8911 276.2233 15.06404492 84948","TLE_LINE1":"1 48569U 21041S   22333.72775295  .00000860  00000-0  76581-4 0  9992"},{"CLASSIFICATION_TYPE":"U","BSTAR":"0.00011500000000","OBJECT_TYPE":"PAYLOAD","TIME_SYSTEM":"UTC","FILE":"3673849","NORAD_CAT_ID":"48570","DECAY_DATE":null,"ECCENTRICITY":"0.00011450","ELEMENT_SET_NO":"999","CENTER_NAME":"EARTH","PERIOD":"95.592","OBJECT_NAME":"STARLINK-2220","EPHEMERIS_TYPE":"0","MEAN_ANOMALY":"279.5157","SEMIMAJOR_AXIS":"6925.322","RA_OF_ASC_NODE":"110.2659","MEAN_MOTION":"15.06408786","ARG_OF_PERICENTER":"80.5961","PERIAPSIS":"546.394","SITE":"AFETR","REV_AT_EPOCH":"8480","TLE_LINE1":"1 48570U 21041T   22333.78212132  .00001432  00000-0  11500-3 0  9991","GP_ID":"219111382","TLE_LINE2":"2 48570  53.0544 110.2659 0001145  80.5961 279.5157 15.06408786 84802","LAUNCH_DATE":"2021-05-15","INCLINATION":"53.0544","MEAN_MOTION_DDOT":"0.0000000000000","RCS_SIZE":"LARGE","REF_FRAME":"TEME","OBJECT_ID":"2021-041T","MEAN_MOTION_DOT":"0.00001432","MEAN_ELEMENT_THEORY":"SGP4","EPOCH":"2022-11-29T18:46:15.282048","APOAPSIS":"547.980","COUNTRY_CODE":"US"},{"GP_ID":"219110130","TLE_LINE2":"2 48571  53.0532 110.2303 0000953  70.7798 289.3294 15.06409426 84815","TLE_LINE1":"1 48571U 21041U   22333.78949896  .00000806  00000-0  72959-4 0  9996","REV_AT_EPOCH":"8481","SITE":"AFETR","PERIAPSIS":"546.525","MEAN_MOTION":"15.06409426","ARG_OF_PERICENTER":"70.7798","RA_OF_ASC_NODE":"110.2303","COUNTRY_CODE":"US","APOAPSIS":"547.845","MEAN_MOTION_DOT":"0.00000806","MEAN_ELEMENT_THEORY":"SGP4","EPOCH":"2022-11-29T18:56:52.710144","OBJECT_ID":"2021-041U","REF_FRAME":"TEME","RCS_SIZE":"LARGE","LAUNCH_DATE":"2021-05-15","MEAN_MOTION_DDOT":"0.0000000000000","INCLINATION":"53.0532","ECCENTRICITY":"0.00009530","DECAY_DATE":null,"NORAD_CAT_ID":"48571","FILE":"3673849","TIME_SYSTEM":"UTC","BSTAR":"0.00007295900000","OBJECT_TYPE":"PAYLOAD","CLASSIFICATION_TYPE":"U","SEMIMAJOR_AXIS":"6925.320","EPHEMERIS_TYPE":"0","MEAN_ANOMALY":"289.3294","OBJECT_NAME":"STARLINK-2221","PERIOD":"95.592","CENTER_NAME":"EARTH","ELEMENT_SET_NO":"999"}];
